[{"OBJECT_NAME":"STARLINK-1266","OBJECT_ID":"2020-019Z","EPOCH":"2025-12-08T23:40:42.991680","MEAN_MOTION":15.06404055,"ECCENTRICITY":0.0001474,"INCLINATION":53.0543,"RA_OF_ASC_NODE":193.8024,"ARG_OF_PERICENTER":95.8864,"MEAN_ANOMALY":264.2293,"EPHEMERIS_TYPE":0,"CLASSIFICATION_TYPE":"U","NORAD_CAT_ID":45383,"ELEMENT_SET_NO":999,"REV_AT_EPOCH":31633,"BSTAR":0.00015091,"MEAN_MOTION_DOT":1.967e-5,"MEAN_MOTION_DDOT":0},{"OBJECT_NAME":"STARLINK-1267","OBJECT_ID":"2020-019AA","EPOCH":"2025-12-08T23:19:36.818688","MEAN_MOTION":15.06393216,"ECCENTRICITY":0.0001603,"INCLINATION":53.0552,"RA_OF_ASC_NODE":194.5258,"ARG_OF_PERICENTER":83.8489,"MEAN_ANOMALY":276.2683,"EPHEMERIS_TYPE":0,"CLASSIFICATION_TYPE":"U","NORAD_CAT_ID":45384,"ELEMENT_SET_NO":999,"REV_AT_EPOCH":31632,"BSTAR":-9.4677e-6,"MEAN_MOTION_DOT":-4.23e-6,"MEAN_MOTION_DDOT":0},{"OBJECT_NAME":"STARLINK-1272","OBJECT_ID":"2020-019AC","EPOCH":"2025-12-09T03:00:01.327968","MEAN_MOTION":15.39617248,"ECCENTRICITY":0.0008947,"INCLINATION":53.0504,"RA_OF_ASC_NODE":182.7714,"ARG_OF_PERICENTER":135.2855,"MEAN_ANOMALY":224.8872,"EPHEMERIS_TYPE":0,"CLASSIFICATION_TYPE":"U","NORAD_CAT_ID":45386,"ELEMENT_SET_NO":999,"REV_AT_EPOCH":31650,"BSTAR":0.0020196,"MEAN_MOTION_DOT":0.00081343,"MEAN_MOTION_DDOT":0},{"OBJECT_NAME":"STARLINK-1274","OBJECT_ID":"2020-019AD","EPOCH":"2025-12-08T20:03:34.347744","MEAN_MOTION":15.33446407,"ECCENTRICITY":0.00054159,"INCLINATION":53.0324,"RA_OF_ASC_NODE":172.9474,"ARG_OF_PERICENTER":99.0671,"MEAN_ANOMALY":261.0943,"EPHEMERIS_TYPE":0,"CLASSIFICATION_TYPE":"U","NORAD_CAT_ID":45387,"ELEMENT_SET_NO":999,"REV_AT_EPOCH":31661,"BSTAR":0.0021770421,"MEAN_MOTION_DOT":0.0007171,"MEAN_MOTION_DDOT":0},{"OBJECT_NAME":"STARLINK-1280","OBJECT_ID":"2020-019AE","EPOCH":"2025-12-08T23:36:55.185120","MEAN_MOTION":15.45996127,"ECCENTRICITY":0.0010365,"INCLINATION":53.0512,"RA_OF_ASC_NODE":201.2806,"ARG_OF_PERICENTER":122.3894,"MEAN_ANOMALY":237.8117,"EPHEMERIS_TYPE":0,"CLASSIFICATION_TYPE":"U","NORAD_CAT_ID":45388,"ELEMENT_SET_NO":999,"REV_AT_EPOCH":31622,"BSTAR":0.00048829,"MEAN_MOTION_DOT":0.00023887,"MEAN_MOTION_DDOT":0},{"OBJECT_NAME":"STARLINK-1283","OBJECT_ID":"2020-019AF","EPOCH":"2025-12-08T20:47:52.837728","MEAN_MOTION":15.35439476,"ECCENTRICITY":0.0010309,"INCLINATION":53.0508,"RA_OF_ASC_NODE":183.6317,"ARG_OF_PERICENTER":130.1224,"MEAN_ANOMALY":230.0682,"EPHEMERIS_TYPE":0,"CLASSIFICATION_TYPE":"U","NORAD_CAT_ID":45389,"ELEMENT_SET_NO":999,"REV_AT_EPOCH":31647,"BSTAR":0.0019461,"MEAN_MOTION_DOT":0.00068315,"MEAN_MOTION_DDOT":0},{"OBJECT_NAME":"STARLINK-1284","OBJECT_ID":"2020-019AG","EPOCH":"2025-12-08T20:34:57.169632","MEAN_MOTION":15.06395346,"ECCENTRICITY":0.0001421,"INCLINATION":53.0535,"RA_OF_ASC_NODE":194.3839,"ARG_OF_PERICENTER":87.3251,"MEAN_ANOMALY":272.79,"EPHEMERIS_TYPE":0,"CLASSIFICATION_TYPE":"U","NORAD_CAT_ID":45390,"ELEMENT_SET_NO":999,"REV_AT_EPOCH":31631,"BSTAR":1.204e-5,"MEAN_MOTION_DOT":-1.02e-6,"MEAN_MOTION_DDOT":0},{"OBJECT_NAME":"STARLINK-1297","OBJECT_ID":"2020-019AM","EPOCH":"2025-12-09T00:39:06.996384","MEAN_MOTION":15.06402721,"ECCENTRICITY":0.0001405,"INCLINATION":53.0531,"RA_OF_ASC_NODE":193.6187,"ARG_OF_PERICENTER":86.124,"MEAN_ANOMALY":273.9909,"EPHEMERIS_TYPE":0,"CLASSIFICATION_TYPE":"U","NORAD_CAT_ID":45395,"ELEMENT_SET_NO":999,"REV_AT_EPOCH":31552,"BSTAR":7.1729e-5,"MEAN_MOTION_DOT":7.87e-6,"MEAN_MOTION_DDOT":0},{"OBJECT_NAME":"STARLINK-1307","OBJECT_ID":"2020-019AP","EPOCH":"2025-12-08T21:17:25.350144","MEAN_MOTION":15.0639067,"ECCENTRICITY":0.000148,"INCLINATION":53.0551,"RA_OF_ASC_NODE":194.2475,"ARG_OF_PERICENTER":93.4381,"MEAN_ANOMALY":266.6777,"EPHEMERIS_TYPE":0,"CLASSIFICATION_TYPE":"U","NORAD_CAT_ID":45397,"ELEMENT_SET_NO":999,"REV_AT_EPOCH":31614,"BSTAR":5.6774e-5,"MEAN_MOTION_DOT":5.64e-6,"MEAN_MOTION_DDOT":0},{"OBJECT_NAME":"STARLINK-1255","OBJECT_ID":"2020-019AR","EPOCH":"2025-12-08T22:33:58.641984","MEAN_MOTION":15.35401692,"ECCENTRICITY":0.0008132,"INCLINATION":53.047,"RA_OF_ASC_NODE":174.3588,"ARG_OF_PERICENTER":138.2223,"MEAN_ANOMALY":221.9401,"EPHEMERIS_TYPE":0,"CLASSIFICATION_TYPE":"U","NORAD_CAT_ID":45399,"ELEMENT_SET_NO":999,"REV_AT_EPOCH":31641,"BSTAR":0.0020686,"MEAN_MOTION_DOT":0.00072548,"MEAN_MOTION_DDOT":0},{"OBJECT_NAME":"STARLINK-1260","OBJECT_ID":"2020-019AW","EPOCH":"2025-12-08T22:54:17.017632","MEAN_MOTION":15.06395,"ECCENTRICITY":0.0001429,"INCLINATION":53.0538,"RA_OF_ASC_NODE":183.9416,"ARG_OF_PERICENTER":89.5595,"MEAN_ANOMALY":270.5558,"EPHEMERIS_TYPE":0,"CLASSIFICATION_TYPE":"U","NORAD_CAT_ID":45404,"ELEMENT_SET_NO":999,"REV_AT_EPOCH":31618,"BSTAR":4.1004e-5,"MEAN_MOTION_DOT":3.29e-6,"MEAN_MOTION_DDOT":0},{"OBJECT_NAME":"STARLINK-1263","OBJECT_ID":"2020-019AX","EPOCH":"2025-12-08T22:33:01.660320","MEAN_MOTION":15.06386814,"ECCENTRICITY":0.0001187,"INCLINATION":53.0521,"RA_OF_ASC_NODE":184.0133,"ARG_OF_PERICENTER":90.8888,"MEAN_ANOMALY":269.2237,"EPHEMERIS_TYPE":0,"CLASSIFICATION_TYPE":"U","NORAD_CAT_ID":45405,"ELEMENT_SET_NO":999,"REV_AT_EPOCH":31618,"BSTAR":-0.00010213,"MEAN_MOTION_DOT":-1.802e-5,"MEAN_MOTION_DDOT":0},{"OBJECT_NAME":"STARLINK-1265","OBJECT_ID":"2020-019AY","EPOCH":"2025-12-08T22:43:38.450784","MEAN_MOTION":15.0640902,"ECCENTRICITY":0.0001306,"INCLINATION":53.054,"RA_OF_ASC_NODE":183.9791,"ARG_OF_PERICENTER":89.8614,"MEAN_ANOMALY":270.2524,"EPHEMERIS_TYPE":0,"CLASSIFICATION_TYPE":"U","NORAD_CAT_ID":45406,"ELEMENT_SET_NO":999,"REV_AT_EPOCH":31618,"BSTAR":0.00022803,"MEAN_MOTION_DOT":3.117e-5,"MEAN_MOTION_DDOT":0},{"OBJECT_NAME":"STARLINK-1278","OBJECT_ID":"2020-019BA","EPOCH":"2025-12-08T22:35:09.966912","MEAN_MOTION":15.38643258,"ECCENTRICITY":0.0009591,"INCLINATION":53.0525,"RA_OF_ASC_NODE":203.8212,"ARG_OF_PERICENTER":116.1603,"MEAN_ANOMALY":244.0387,"EPHEMERIS_TYPE":0,"CLASSIFICATION_TYPE":"U","NORAD_CAT_ID":45408,"ELEMENT_SET_NO":999,"REV_AT_EPOCH":31591,"BSTAR":0.0024605,"MEAN_MOTION_DOT":0.00096268,"MEAN_MOTION_DDOT":0},{"OBJECT_NAME":"STARLINK-1296","OBJECT_ID":"2020-019BE","EPOCH":"2025-12-08T21:13:26.029920","MEAN_MOTION":15.06389528,"ECCENTRICITY":0.0001463,"INCLINATION":53.0538,"RA_OF_ASC_NODE":184.258,"ARG_OF_PERICENTER":93.2403,"MEAN_ANOMALY":266.8754,"EPHEMERIS_TYPE":0,"CLASSIFICATION_TYPE":"U","NORAD_CAT_ID":45412,"ELEMENT_SET_NO":999,"REV_AT_EPOCH":31617,"BSTAR":4.1527e-5,"MEAN_MOTION_DOT":3.37e-6,"MEAN_MOTION_DDOT":0},{"OBJECT_NAME":"STARLINK-1298","OBJECT_ID":"2020-019BF","EPOCH":"2025-12-08T20:33:51.097824","MEAN_MOTION":15.59870548,"ECCENTRICITY":0.000759,"INCLINATION":53.0462,"RA_OF_ASC_NODE":146.9808,"ARG_OF_PERICENTER":91.4417,"MEAN_ANOMALY":268.7465,"EPHEMERIS_TYPE":0,"CLASSIFICATION_TYPE":"U","NORAD_CAT_ID":45413,"ELEMENT_SET_NO":999,"REV_AT_EPOCH":31679,"BSTAR":0.0024287,"MEAN_MOTION_DOT":0.00203734,"MEAN_MOTION_DDOT":0}]
