STARLINK-1266           
1 45383U 20019Z   25342.98660870  .00001967  00000+0  15091-3 0  9996
2 45383  53.0543 193.8024 0001474  95.8864 264.2293 15.06404055316332
STARLINK-1267           
1 45384U 20019AA  25342.97195392 -.00000423  00000+0 -94677-5 0  9995
2 45384  53.0552 194.5258 0001603  83.8489 276.2683 15.06393216316325
STARLINK-1272           
1 45386U 20019AC  25343.12501537  .00081343  00000+0  20196-2 0  9997
2 45386  53.0504 182.7714 0008947 135.2855 224.8872 15.39617248316506
STARLINK-1274           
1 45387U 20019AD  25342.83581421  .00071710  00000+0  21770-2 0  9991
2 45387  53.0324 172.9474 0005415  99.0671 261.0943 15.33446407316616
STARLINK-1280           
1 45388U 20019AE  25342.98397205  .00023887  00000+0  48829-3 0  9990
2 45388  53.0512 201.2806 0010365 122.3894 237.8117 15.45996127316221
STARLINK-1283           
1 45389U 20019AF  25342.86658377  .00068315  00000+0  19461-2 0  9992
2 45389  53.0508 183.6317 0010309 130.1224 230.0682 15.35439476316476
STARLINK-1284           
1 45390U 20019AG  25342.85760613 -.00000102  00000+0  12040-4 0  9999
2 45390  53.0535 194.3839 0001421  87.3251 272.7900 15.06395346316318
STARLINK-1297           
1 45395U 20019AM  25343.02716431  .00000787  00000+0  71729-4 0  9990
2 45395  53.0531 193.6187 0001405  86.1240 273.9909 15.06402721315524
STARLINK-1307           
1 45397U 20019AP  25342.88709896  .00000564  00000+0  56774-4 0  9998
2 45397  53.0551 194.2475 0001480  93.4381 266.6777 15.06390670316145
STARLINK-1255           
1 45399U 20019AR  25342.94026206  .00072548  00000+0  20686-2 0  9996
2 45399  53.0470 174.3588 0008132 138.2223 221.9401 15.35401692316412
STARLINK-1260           
1 45404U 20019AW  25342.95436363  .00000329  00000+0  41004-4 0  9990
2 45404  53.0538 183.9416 0001429  89.5595 270.5558 15.06395000316182
STARLINK-1263           
1 45405U 20019AX  25342.93960255 -.00001802  00000+0 -10213-3 0  9997
2 45405  53.0521 184.0133 0001187  90.8888 269.2237 15.06386814316186
STARLINK-1265           
1 45406U 20019AY  25342.94697281  .00003117  00000+0  22803-3 0  9992
2 45406  53.0540 183.9791 0001306  89.8614 270.2524 15.06409020316180
STARLINK-1278           
1 45408U 20019BA  25342.94108758  .00096268  00000+0  24605-2 0  9990
2 45408  53.0525 203.8212 0009591 116.1603 244.0387 15.38643258315915
STARLINK-1296           
1 45412U 20019BE  25342.88432905  .00000337  00000+0  41527-4 0  9998
2 45412  53.0538 184.2580 0001463  93.2403 266.8754 15.06389528316178
STARLINK-1298           
1 45413U 20019BF  25342.85684141  .00203734  00000+0  24287-2 0  9995
2 45413  53.0462 146.9808 0007590  91.4417 268.7465 15.59870548316798
